#dP2024  5  2  0  0  0.00000000      96 __u+U IGS20 FIT  IAC
## 2312 345600.00000000   900.00000000 60432 0.0000000000000
+  128   C01C02C03C04C05C06C07C08C09C10C11C12C13C14C16C19C20
+        C21C22C23C24C25C26C27C28C29C30C32C33C34C35C36C37C38
+        C39C40C41C42C43C44C45C46E02E03E04E05E07E08E09E10E11
+        E12E13E14E15E18E19E21E24E25E26E27E30E31E33E34E36G01
+        G02G03G04G05G06G07G08G09G10G11G12G13G14G15G16G17G18
+        G19G20G21G22G23G24G25G26G27G28G29G30G31G32J03J04J07
+        R01R02R03R04R05R06R07R08R09R10R11R12R13R14R15R16R17
+        R18R19R20R21R22R23R24R25R26  0  0  0  0  0  0  0  0
++        17 17 17 17 16  9 10 10 10  9  9  9  9  8  9  8  7
++         7  7  7  7  7  7  7  7  7  7  7  7  7  8  8  7  8
++         8  8  7  7  7  7  7  7  4  4  4  4  4  4  4  4  4
++         4  4  4  4  5  5  4  4  4  4  5  5  4  5  4  5  7
++         4  4  4  4  4  4  4  4  4  4  4  4  4  4  4  4  4
++         4  4  4  4  4  4  4  4  4  4  4  4  4  4 10 11 17
++         8  6  6  6  6 15  6  6  6 15  6  6  7  6  6  6  6
++         6  8  8  6  6 15  6  8  9  0  0  0  0  0  0  0  0
%c M  cc GPS ccc cccc cccc cccc cccc ccccc ccccc ccccc ccccc
%c cc cc ccc ccc cccc cccc cccc cccc ccccc ccccc ccccc ccccc
%f  0.0000000  0.000000000  0.00000000000  0.000000000000000
%f  0.0000000  0.000000000  0.00000000000  0.000000000000000
%i    0    0    0    0      0      0      0      0         0
%i    0    0    0    0      0      0      0      0         0
/* INFORMATION & ANALYSIS CENTER (IAC)            RAPID DATA
/* S/V CLOCKS ARE ALIGNED TO GNSS TIME                      
/* G:C1WC2W R:C1PC2P E:C1XC5X C:C2IC6I J:C1CC2S             
/* PCV:IGS20_2290 OL/AL:FES2004  NONE     YN ORB:CoN CLK:CoN
*  2024 05 02 16 30  0.00000000
PC01 -34333.967132  24461.727951     11.966703    894.673818
PC02   4299.544028  41955.044810   1658.229400    653.882800
PC03 -14811.897953  39511.210506    653.949188    228.077591
PC04 -39624.379346  14370.720497   -444.486394   -176.031884
PC05  21916.835761  36032.294702   1424.357997   -814.113472
PC06   -191.906573  35166.413404  23549.285100    391.074797
PC07 -14775.248777  27079.104140 -28741.458743   -766.396564
PC08 -16905.504021  37932.444271   6639.842656    -77.706488
PC09   3881.067964  38221.863456  18558.612834   -844.778346
PC10  -5556.063698  27802.520648 -30971.723924     63.349649
PC11  -8591.345827  12974.981207 -23102.135182    542.122246
PC12 -21579.570970  -3761.787560 -17257.219263   -240.356447
PC13 -10808.492222  38394.803621  13396.077820    433.907552
PC14 -19068.844650  16015.965217  12677.810170    785.493146
PC16  -3966.273906  32314.990320  27281.653776   -495.642590
PC19  10089.887644 -17427.672186 -19276.914471   -913.188808
PC20  24142.097051 -12731.431493  -5700.127430   -421.783847
PC21 -24875.893206   -193.956607 -12663.587077   -965.089035
PC22 -10650.501369 -12408.885040 -22617.171287    -18.495678
PC23   5808.784514  23609.073521 -13691.777948   -777.273162
PC24 -15761.158245  14383.438669  17962.231697    930.436726
PC25  -6236.274312  27044.185854   2805.491814    389.689687
PC26 -15457.642167  -5861.827436  22467.612124   -285.606548
PC27  23594.558006  10962.665454  10083.662530    307.263379
PC28  18051.532360  20569.244085  -5460.252466    235.294479
PC29   -306.286478 -18784.841055  20624.611629    276.062758
PC30  17424.301423  -5205.070479  21160.570647    -68.143879
PC32  24800.880999    115.752820  12787.437029   -614.279728
PC33 -10104.244412  17541.809680  19225.807823   -967.673375
PC34 -16250.378517   6677.554825 -21693.657755    425.020594
PC35 -18615.933850 -19961.282950   5696.289738    372.852475
PC36   6923.645388 -26878.697630  -2910.665850     69.518722
PC37  15272.707988   6417.519353 -22444.367774   -968.559034
PC38 -19696.183793  37198.257676   -824.931712    152.648624
PC39  -6300.319102  28958.900748  30159.923808     -8.203060
PC40 -20523.640294  20424.871969 -30763.769156    -68.250749
PC41   9750.028959  12894.246809  22800.561683   -938.255596
PC42 -24886.773657  11995.051286   4131.736209   -442.652325
PC43   -720.683524  18455.800818 -20939.993430     70.184732
PC44 -24045.331612 -10059.552099  -9945.494865    461.362230
PC45  -5605.186418 -23676.036288  13683.227568    -83.363972
PC46  15537.375574 -15140.642338 -17577.248441   -144.874630
PE02  23698.432707  -9132.735727 -15222.031503    124.198035
PE03  28147.696841    477.128617  -9117.612482   -111.129050
PE04 -14584.770660  12563.527599  22501.614475   -387.524117
PE05  24918.647010  12966.836011   9332.675166   4744.012623
PE07  -6707.152214 -17939.891937 -22560.563852   -117.863848
PE08  15348.769736 -12009.325611 -22268.291123   -264.351010
PE09   6583.634778  17811.062446  22710.153466   -428.434899
PE10   -993.253944  26648.625935 -12859.357360   -621.700257
PE11   6145.643314  28818.897424  -2931.953038   2940.438412
PE12  -7381.002693  20816.323022 -19727.369202  -1020.552989
PE13  -5794.515944 -28805.076083   3526.200763    -21.345250
PE14   8906.127688 -13732.110625  18409.748104     23.985883
PE15   7659.008956 -20325.979684  20103.601700   -100.532915
PE18 -19255.556703  13172.835322 -21298.092449     65.572735
PE19 -28614.214667  -2110.256464   7299.256563   -136.030292
PE21 -14737.957088  -8748.414139  24128.884030   -592.372099
PE24  -3474.463136  22388.494036 -19057.571089   -740.208338
PE25  14428.159699   9118.508705 -24182.774329      4.030113
PE26 -15894.922444 -19791.324941 -15221.150249    442.832935
PE27   3182.860481 -22267.085048  19241.656432   -339.263307
PE30  19157.850747 -22380.169846   2917.030812   -259.157257
PE31 -19002.024774  22486.640998  -3069.725364    -22.410653
PE33 -16523.663463   -523.696029 -24555.136017     11.179857
PE34  16409.411698   -100.100236  24626.451028   -108.989946
PE36  15623.150686  20326.333635  14806.873069   -221.548529
PG01  -1699.191916  19990.390171 -17612.230840    278.698240
PG02  16864.900568   3260.347364  20812.115549   -443.230428
PG03  20699.164060  -9181.596167  13628.916568    342.491755
PG04  25290.941033    509.789442  -8302.525619    352.160887
PG05 -15169.812173  -4693.656340 -21480.430575   -171.266395
PG06  -4778.913114 -25703.148883   4388.203040    293.306150
PG07   8407.418992 -16605.945636 -18254.073616   -120.232627
PG08  26007.385781   6179.049109  -1946.935076    156.256840
PG09  17259.599849  -9501.974165 -17916.298688    181.685352
PG10  -7174.399701  21491.272917  13797.793334    -16.765551
PG11 -11960.912891 -22177.862781  -8457.796607   -652.092042
PG12 -21177.547865   6441.602632  14353.750777   -501.836821
PG13 -21204.243985 -13986.020547  -8360.304515    647.414171
PG14  10782.400844 -21914.397453  10211.824943    390.916106
PG15 -26360.776306  -3502.626361  -2482.073090    154.726386
PG16  12184.925668   9553.329493 -21943.451774   -301.947996
PG17   4200.835847 -14639.952486  22179.916100    709.111189
PG18  -7841.191353  17379.189196 -18395.235851   -604.325311
PG19  -6727.859351 -16476.582087  19655.035932    476.454722
PG20  -7846.233249 -14872.622033 -20532.386084    378.034215
PG21  17795.127824   9481.614616  18226.253898    123.947970
PG22   4590.046319 -20338.982573  17040.937456     -7.989416
PG23 -15957.523887  20971.198651   2346.879767    215.486726
PG24 -17567.489967  -5671.190766  18821.109355   -465.729691
PG25 -20153.309705  15489.541608   6877.009438    494.973829
PG26   2422.715352  19088.205384 -18306.610065    158.607324
PG27  19964.225727  13048.342098 -12415.168592    -21.962162
PG28   3972.450705  25365.355891   6795.940562   -227.232045
PG29 -19895.287031   5939.093544 -16680.406383   -599.892989
PG30    759.574332 -24035.677921 -10828.299679   -396.488461
PG31  10087.205863  24029.945842  -4076.935989   -227.931519
PG32   -116.056349  15509.788078  21788.582526   -618.428281
PJ03 -20289.875034  23235.010959 -24140.154059      0.087292
PJ04 -28386.385360  30049.619311  14606.078523     50.371601
PJ07 -25400.578574  33670.143698     42.934357      0.010160
PR01  21200.364743   2625.221289  13932.796081     84.174897
PR02  24860.992687  -5145.287293  -2743.552853    -22.864865
PR03  14395.279604 -10929.685442 -17973.035687     99.385768
PR04  -3532.076490 -10252.143852 -23053.070786    234.629376
PR05 -19598.627753  -4363.407658 -15703.668803    130.888194
PR06 -24258.669623   6739.115823   4048.458168   -161.581429
PR07 -13475.238778  11072.866035  18639.932532     81.518192
PR08   3952.239936  10314.753129  23058.890672    -75.280464
PR09 -13505.486052  10817.207109  18795.579389    184.326369
PR10 -11228.033619  21855.022693   6698.048187   -157.619581
PR11  -2554.192266  22752.584340 -11255.238693     26.071171
PR12   8474.460987   8272.632797 -22566.393581     39.668715
PR13  13223.267692  -8122.997333 -20257.709940    -46.993099
PR14  10517.028612 -22790.548301  -4469.446433     26.452117
PR15   1695.180513 -22094.568327  12645.769260     80.143279
PR16  -8284.156817  -8410.833203  22616.525651     25.254304
PR17   1924.720903 -13365.004381  21651.445845     83.232048
PR18 -10258.585776 -20749.001540  10669.046425    140.092589
PR19 -16465.758529 -19021.224061  -4217.336165   -275.155238
PR20 -14132.548038  -3396.204454 -20946.688337   -112.182818
PR21  -2086.216871  13193.892368 -21731.392976    -97.564993
PR22  10344.592414  21302.070309  -9479.106920    114.156794
PR23  17497.527962  16977.724684   7500.956113   -119.682357
PR24  14359.124534   2013.966719  20993.856357    -54.210646
PR25  -2534.860483  13589.235143 -21432.253474    -33.089883
PR26   2637.428636  10537.164507  23103.758692    -21.815453
EOF
